*******************************************************************************
JPL/HORIZONS               680 Genoveva (A909 HF)          2023-Sep-04 11:07:42
Rec #:     680 (+COV) Soln.date: 2023-Aug-24_12:07:08   # obs: 6688 (1909-2023)
 
IAU76/J2000 helio. ecliptic osc. elements (au, days, deg., period=Julian yrs):
 
  EPOCH=  2457263.5 ! 2015-Aug-29.00 (TDB)         Residual RMS= .27484
   EC= .2933510739918156   QR= 2.222384045227053   TP= 2457467.1858777329
   OM= 38.04504594903973   W=  245.7102737117649   IN= 17.4981590014529
   A= 3.144962036213883    MA= 324.0050245421317   ADIST= 4.067540027200713
   PER= 5.57739            N= .176718071           ANGMOM= .029164142
   DAN= 3.26877            DDN= 2.56482            L= 282.7216299
   B= -15.905915           MOID= 1.27109003        TP= 2016-Mar-19.6858777329
 
Asteroid physical parameters (km, seconds, rotational period in hours):
   GM= n.a.                RAD= 41.96              ROTPER= 11.089
   H= 9.61                 G= .150                 B-V= .689
                           ALBEDO= .0474           STYP= XC

ASTEROID comments: 
1: soln ref.= JPL#65, OCC=0
2: source=ORB
*******************************************************************************


*******************************************************************************
Ephemeris / API_USER Mon Sep  4 11:07:42 2023 Pasadena, USA      / Horizons
*******************************************************************************
Target body name: 680 Genoveva (A909 HF)          {source: JPL#65}
Center body name: Solar System Barycenter (0)     {source: DE441}
Center-site name: BODY CENTER
*******************************************************************************
Start time      : A.D. 2023-Aug-12 00:00:00.0000 TDB
Stop  time      : A.D. 2023-Aug-13 00:00:00.0000 TDB
Step-size       : 2880 minutes
*******************************************************************************
Center geodetic : 0.0, 0.0, 0.0                   {E-lon(deg),Lat(deg),Alt(km)}
Center cylindric: 0.0, 0.0, 0.0                   {E-lon(deg),Dxy(km),Dz(km)}
Center radii    : (undefined)
Small perturbers: Yes                             {source: SB441-N16}
Output units    : KM-S
Calendar mode   : Mixed Julian/Gregorian
Output type     : GEOMETRIC cartesian states
Output format   : 2 (position and velocity)
Reference frame : Ecliptic of J2000.0
*******************************************************************************
Initial IAU76/J2000 heliocentric ecliptic osculating elements (au, days, deg.):
  EPOCH=  2457263.5 ! 2015-Aug-29.00 (TDB)         Residual RMS= .27484        
   EC= .2933510739918156   QR= 2.222384045227053   TP= 2457467.1858777329      
   OM= 38.04504594903973   W=  245.7102737117649   IN= 17.4981590014529        
  Equivalent ICRF heliocentric cartesian coordinates (au, au/d):
   X=-1.919204802414466E+00  Y=-1.503765989904860E+00  Z=-6.935488091835559E-01
  VX= 9.212427310890526E-03 VY=-4.647301095014846E-03 VZ=-5.737099682869422E-03
Asteroid physical parameters (km, seconds, rotational period in hours):        
   GM= n.a.                RAD= 41.96              ROTPER= 11.089              
   H= 9.61                 G= .150                 B-V= .689                   
                           ALBEDO= .0474           STYP= XC                    
*******************************************************************************
JDTDB
   X     Y     Z
   VX    VY    VZ
*******************************************************************************
$$SOE
2460168.500000000 = A.D. 2023-Aug-12 00:00:00.0000 TDB 
 X = 2.344717306142821E+08 Y = 5.015467885392095E+08 Z = 7.920418176854560E+07
 VX=-1.060774278359239E+01 VY= 7.891388851466257E+00 VZ= 4.030170817853239E+00
$$EOE
*******************************************************************************
 
TIME

  Barycentric Dynamical Time ("TDB" or T_eph) output was requested. This
continuous coordinate time is equivalent to the relativistic proper time
of a clock at rest in a reference frame co-moving with the solar system
barycenter but outside the system's gravity well. It is the independent
variable in the solar system relativistic equations of motion.

  TDB runs at a uniform rate of one SI second per second and is independent
of irregularities in Earth's rotation.
 
CALENDAR SYSTEM

  Mixed calendar mode was active such that calendar dates after AD 1582-Oct-15
(if any) are in the modern Gregorian system. Dates prior to 1582-Oct-5 (if any)
are in the Julian calendar system, which is automatically extended for dates
prior to its adoption on 45-Jan-1 BC.  The Julian calendar is useful for
matching historical dates. The Gregorian calendar more accurately corresponds
to the Earth's orbital motion and seasons. A "Gregorian-only" calendar mode is
available if such physical events are the primary interest.

REFERENCE FRAME AND COORDINATES

  Ecliptic at the standard reference epoch

    Reference epoch: J2000.0
    X-Y plane: adopted Earth orbital plane at the reference epoch
               Note: IAU76 obliquity of 84381.448 arcseconds wrt ICRF X-Y plane
    X-axis   : ICRF
    Z-axis   : perpendicular to the X-Y plane in the directional (+ or -) sense
               of Earth's north pole at the reference epoch.

  Symbol meaning:

    JDTDB    Julian Day Number, Barycentric Dynamical Time
      X      X-component of position vector (km)
      Y      Y-component of position vector (km)
      Z      Z-component of position vector (km)
      VX     X-component of velocity vector (km/sec)                           
      VY     Y-component of velocity vector (km/sec)                           
      VZ     Z-component of velocity vector (km/sec)                           

ABERRATIONS AND CORRECTIONS

 Geometric state vectors have NO corrections or aberrations applied.

Computations by ...

    Solar System Dynamics Group, Horizons On-Line Ephemeris System
    4800 Oak Grove Drive, Jet Propulsion Laboratory
    Pasadena, CA  91109   USA

    General site: https://ssd.jpl.nasa.gov/
    Mailing list: https://ssd.jpl.nasa.gov/email_list.html
    System news : https://ssd.jpl.nasa.gov/horizons/news.html
    User Guide  : https://ssd.jpl.nasa.gov/horizons/manual.html
    Connect     : browser        https://ssd.jpl.nasa.gov/horizons/app.html#/x
                  API            https://ssd-api.jpl.nasa.gov/doc/horizons.html
                  command-line   telnet ssd.jpl.nasa.gov 6775
                  e-mail/batch   https://ssd.jpl.nasa.gov/ftp/ssd/hrzn_batch.txt
                  scripts        https://ssd.jpl.nasa.gov/ftp/ssd/SCRIPTS
    Author      : Jon.D.Giorgini@jpl.nasa.gov
*******************************************************************************
